CZ-4B R/B               
1 28059U 03049C   16316.75559301  .00000046  00000-0  23152-4 0  9999
2 28059  98.5882 191.9658 0049915 189.0540 212.8602 14.52465040692111
CZ-2C R/B               
1 28222U 04012C   16316.87698027  .00000932  00000-0  61737-4 0  9999
2 28222  97.4945 271.9411 0047900 209.3592 167.1515 15.08872310687834
SL-16 R/B               
1 28353U 04021B   16316.78627430  .00000283  00000-0  17307-3 0  9996
2 28353  71.0001 174.3868 0005153 192.8579 167.2413 14.14188998641428
CZ-2C R/B               
1 28480U 04046B   16317.36842285  .00000020  00000-0  22774-4 0  9990
2 28480  98.1939  61.5837 0142847 144.0722 263.4312 14.25616120623346
ARIANE 5 R/B            
1 28499U 04049H   16317.33270510  .00000171  00000-0  28698-4 0  9994
2 28499  98.0985  32.9023 0092260 194.8975 214.5475 14.79757011641926
CZ-2D R/B               
1 28738U 05024B   16316.72328049  .00001175  00000-0  74410-4 0  9995
2 28738  97.5257 351.5530 0013264  39.0398 321.1786 15.10848554622970
SUZAKU (ASTRO-EII)      
1 28773U 05025A   16317.31060432  .00001999  00000-0  99174-4 0  9998
2 28773  31.3831 262.2613 0004881 329.3381  30.6980 15.15271680624420
ALOS (DAICHI)           
1 28931U 06002A   16316.88683290  .00000253  00000-0  58904-4 0  9992
2 28931  97.8691 348.8493 0000535  52.1689 307.9564 14.62272467575707
H-2A R/B                
1 28932U 06002B   16317.56623763  .00000905  00000-0  91141-4 0  9992
2 28932  98.2057 225.7645 0089329 301.7791 152.6202 14.91136254585526
AKARI (ASTRO-F)         
1 28939U 06005A   16316.81262490  .00007367  00000-0  23521-3 0  9990
2 28939  98.2523 128.6928 0109930 218.8911 140.4380 15.27083663579923
RESURS-DK 1             
1 29228U 06021A   16317.48319876  .00000412  00000-0  38776-4 0  9998
2 29228  69.9350 289.3663 0007404 296.0728  63.9670 15.02038773575568
GENESIS 1               
1 29252U 06029A   16316.82999041  .00001181  00000-0  70657-4 0  9996
2 29252  64.5050 275.1851 0015326 226.6065 228.1083 15.16406100568877
CZ-4B R/B               
1 29507U 06046C   16317.46991481  .00000398  00000-0  36640-4 0  9992
2 29507  97.7852 318.8199 0041339 264.7984  94.8521 14.99902910548552
CZ-2C R/B               
1 31114U 07010B   16316.35158401  .00000029  00000-0  32607-4 0  9995
2 31114  98.4081 223.9342 0060630 127.1691 233.5043 14.19223058496621
COSMO-SKYMED 1          
1 31598U 07023A   16317.46533529 -.00000525  00000-0 -59407-4 0  9996
2 31598  97.8748 138.5163 0001324  77.1546 282.9920 14.82156162510349
GENESIS 2               
1 31789U 07028A   16317.14896018  .00000937  00000-0  58443-4 0  9997
2 31789  64.5039 311.3381 0048031 247.6437 111.9591 15.15663566516009
COSMOS 2428             
1 31792U 07029A   16317.53700461 -.00000238  00000-0 -10311-3 0  9998
2 31792  70.9191 146.9723 0010634 254.0435 105.9514 14.12286337483489
SL-16 R/B               
1 31793U 07029B   16316.53757876  .00000161  00000-0  10922-3 0  9991
2 31793  70.9727 126.3344 0001692 260.8112 154.7775 14.14366714483949
KORONAS-FOTON           
1 33504U 09003A   16317.48695353  .00000694  00000-0  35690-4 0  9994
2 33504  82.4426  88.2770 0020604 135.7497 224.5387 15.14578872428679
TIANGONG 1              
1 37820U 11053A   16317.45313128  .00022127  00000-0  18971-3 0  9998
2 37820  42.7625  77.0556 0016590 346.4492  94.4866 15.68769702293823
CZ-3B R/B               
1 38253U 12018D   16317.45205697  .00543578  95110-6  89154-3 0  9993
2 38253  54.9490 343.7930 3080942 337.8876  11.3033  9.45980924104243
H-2A R/B                
1 38341U 12025E   16317.19089812  .00000311  00000-0  44290-4 0  9993
2 38341  98.4619  15.8051 0057018 135.2565 225.3268 14.83449941242706
CUSAT 2 & FALCON 9 R/B  
1 39271U 13055G   16316.51761034  .00010871  00000-0  28369-3 0  9998
2 39271  80.9710 226.7996 0646867 124.5975 241.7991 14.34038220161390
ALOS-2                  
1 39766U 14029A   16317.41934828  .00000151  00000-0  27037-4 0  9994
2 39766  97.9221  51.8652 0001460  84.4497 275.6852 14.79473604133554
ASTRO-H (HITOMI)        
1 41337U 16012A   16317.53376524  .00000484  00000-0  32821-4 0  9997
2 41337  31.0065  51.5488 0012448  60.7955 299.3924 14.98189251 40401
